NORAD_CAT_ID,OBJECT_NAME,OBJECT_TYPE,EPOCH,MEAN_MOTION,ECCENTRICITY,INCLINATION,RA_OF_ASC_NODE,ARG_OF_PERICENTER,MEAN_ANOMALY,BSTAR,MEAN_MOTION_DOT,MEAN_MOTION_DDOT,TLE_LINE0,TLE_LINE1,TLE_LINE2,SEMIMAJOR_AXIS,PERIOD,APOGEE,PERIGEE,DECAYED
53716.0,STARLINK-4699,PAYLOAD,2023-09-09 12:49:07,15.08838594,0.000124,53.2188,28.6212,93.1195,266.9939,8.0324e-05,9.91e-06,0.0,0 STARLINK-4699,1 53716U 22107S   23252.53411871  .00000991  00000-0  80324-4 0  9998,2 53716  53.2188  28.6212 0001240  93.1195 266.9939 15.08838594 56700,6917.885,95.438,540.608,538.892,0.0
53716.0,STARLINK-4699,PAYLOAD,2023-09-10 01:32:12,15.08838057,0.0001248,53.2189,26.2422,87.2446,272.8689,8.7952e-05,1.112e-05,0.0,0 STARLINK-4699,1 53716U 22107S   23253.06403866  .00001112  00000-0  87952-4 0  9992,2 53716  53.2189  26.2422 0001248  87.2446 272.8689 15.08838057 56330,6917.886,95.438,540.615,538.888,0.0
53716.0,STARLINK-4699,PAYLOAD,2023-09-10 09:29:09,15.08832872,0.000127,53.2185,24.7567,85.653,274.4608,4.1309e-05,3.7e-06,0.0,0 STARLINK-4699,1 53716U 22107S   23253.39524429  .00000370  00000-0  41309-4 0  9998,2 53716  53.2185  24.7567 0001270  85.6530 274.4608 15.08832872 56383,6917.902,95.438,540.646,538.889,0.0
53716.0,STARLINK-4699,PAYLOAD,2023-09-10 12:39:55,15.08838324,0.0001423,53.2198,24.1627,93.6037,266.5118,7.8623e-05,9.64e-06,0.0,0 STARLINK-4699,1 53716U 22107S   23253.52771991  .00000964  00000-0  78623-4 0  9999,2 53716  53.2198  24.1627 0001423  93.6037 266.5118 15.08838324 56857,6917.886,95.438,540.735,538.766,0.0
53716.0,STARLINK-4699,PAYLOAD,2023-09-10 14:15:17,15.0884042,0.0001346,53.2191,23.8621,105.93,254.1841,8.2512e-05,1.026e-05,0.0,0 STARLINK-4699,1 53716U 22107S   23253.59395737  .00001026  00000-0  82512-4 0  9998,2 53716  53.2191  23.8621 0001346 105.9300 254.1841 15.08840420 56412,6917.879,95.438,540.675,538.813,0.0
53716.0,STARLINK-4699,PAYLOAD,2023-09-11 07:44:33,15.08834961,0.0001258,53.219,20.5927,92.308,267.8056,4.8337e-05,4.81e-06,0.0,0 STARLINK-4699,1 53716U 22107S   23254.32260455  .00000481  00000-0  48337-4 0  9999,2 53716  53.2190  20.5927 0001258  92.3080 267.8056 15.08834961 56524,6917.896,95.438,540.631,538.891,0.0
53716.0,STARLINK-4699,PAYLOAD,2023-09-11 14:06:05,15.08839798,0.0001248,53.2192,19.4032,91.2985,268.815,3.5585e-06,-2.31e-06,0.0,0 STARLINK-4699,1 53716U 22107S   23254.58756324 -.00000231  00000-0  35585-5 0  9998,2 53716  53.2192  19.4032 0001248  91.2985 268.8150 15.08839798 57015,6917.881,95.438,540.609,538.883,0.0
53716.0,STARLINK-4699,PAYLOAD,2023-09-12 12:21:29,15.08829877,0.0001261,53.2193,15.2412,87.4732,272.6404,0.000181,2.593e-05,0.0,0 STARLINK-4699,1 53716U 22107S   23255.51492718  .00002593  00000-0  18100-3 0  9990,2 53716  53.2193  15.2412 0001261  87.4732 272.6404 15.08829877 57151,6917.911,95.438,540.649,538.904,0.0
53716.0,STARLINK-4699,PAYLOAD,2023-09-12 17:07:38,15.08844559,0.0001385,53.22,14.3481,87.8328,272.2822,0.00012792,1.749e-05,0.0,0 STARLINK-4699,1 53716U 22107S   23255.71363913  .00001749  00000-0  12792-3 0  9999,2 53716  53.2200  14.3481 0001385  87.8328 272.2822 15.08844559 56735,6917.866,95.437,540.69,538.773,0.0
53716.0,STARLINK-4699,PAYLOAD,2023-09-13 13:47:38,15.08852624,0.000132,53.2194,10.4827,85.6612,274.4531,0.00015715,2.215e-05,0.0,0 STARLINK-4699,1 53716U 22107S   23256.57475080  .00002215  00000-0  15715-3 0  9990,2 53716  53.2194  10.4827 0001320  85.6612 274.4531 15.08852624 57317,6917.842,95.437,540.62,538.794,0.0
53716.0,STARLINK-4699,PAYLOAD,2023-09-13 15:23:01,15.08860401,0.0001367,53.2204,10.1859,75.9463,284.1681,0.00023192,3.407e-05,0.0,0 STARLINK-4699,1 53716U 22107S   23256.64098435  .00003407  00000-0  23192-3 0  9995,2 53716  53.2204  10.1859 0001367  75.9463 284.1681 15.08860401 56874,6917.818,95.436,540.629,538.737,0.0
53716.0,STARLINK-4699,PAYLOAD,2023-09-14 00:55:21,15.08842135,0.0001578,53.2212,8.4012,73.2556,286.8609,7.5468e-05,9.13e-06,0.0,0 STARLINK-4699,1 53716U 22107S   23257.03843948  .00000913  00000-0  75468-4 0  9999,2 53716  53.2212   8.4012 0001578  73.2556 286.8609 15.08842135 56932,6917.874,95.437,540.831,538.647,0.0
53716.0,STARLINK-4699,PAYLOAD,2023-09-14 13:38:26,15.08838965,0.0001525,53.2206,6.0238,76.2171,283.8991,-6.9274e-05,-1.39e-05,0.0,0 STARLINK-4699,1 53716U 22107S   23257.56836646 -.00001390  00000-0 -69274-4 0  9994,2 53716  53.2206   6.0238 0001525  76.2171 283.8991 15.08838965 57463,6917.884,95.438,540.804,538.694,0.0
53716.0,STARLINK-4699,PAYLOAD,2023-09-15 13:29:13,15.08843942,0.0001419,53.22,1.5653,72.3067,287.808,-0.00012592,-2.292e-05,0.0,0 STARLINK-4699,1 53716U 22107S   23258.56196615 -.00002292  00000-0 -12592-3 0  9992,2 53716  53.2200   1.5653 0001419  72.3067 287.8080 15.08843942 57612,6917.868,95.437,540.715,538.752,0.0
53716.0,STARLINK-4699,PAYLOAD,2023-09-16 10:09:13,15.08851252,0.0001307,53.2198,357.6982,81.4643,278.6497,0.00023646,3.478e-05,0.0,0 STARLINK-4699,1 53716U 22107S   23259.42306829  .00003478  00000-0  23646-3 0  9995,2 53716  53.2198 357.6982 0001307  81.4643 278.6497 15.08851252 57292,6917.846,95.437,540.615,538.807,0.0
53716.0,STARLINK-4699,PAYLOAD,2023-09-16 13:19:59,15.0885301,0.0001341,53.2193,357.1028,86.9477,273.1669,0.00025244,3.733e-05,0.0,0 STARLINK-4699,1 53716U 22107S   23259.55554633  .00003733  00000-0  25244-3 0  9997,2 53716  53.2193 357.1028 0001341  86.9477 273.1669 15.08853010 57763,6917.841,95.437,540.633,538.778,0.0
53716.0,STARLINK-4699,PAYLOAD,2023-09-17 13:10:48,15.0883567,0.0001148,53.2191,352.6418,97.3372,262.775,1.1517e-05,-1.05e-06,0.0,0 STARLINK-4699,1 53716U 22107S   23260.54916824 -.00000105  00000-0  11517-4 0  9992,2 53716  53.2191 352.6418 0001148  97.3372 262.7750 15.08835670 57913,6917.894,95.438,540.553,538.964,0.0
53716.0,STARLINK-4699,PAYLOAD,2023-09-18 09:50:48,15.08845233,0.0001442,53.2201,348.7789,102.1378,257.9776,-2.063e-05,-6.16e-06,0.0,0 STARLINK-4699,1 53716U 22107S   23261.41028430 -.00000616  00000-0 -20630-4 0  9990,2 53716  53.2201 348.7789 0001442 102.1378 257.9776 15.08845233 57594,6917.864,95.437,540.727,538.732,0.0
53716.0,STARLINK-4699,PAYLOAD,2023-09-18 11:26:11,15.08843297,0.0001509,53.2193,348.482,100.8616,259.2546,6.7112e-06,-1.81e-06,0.0,0 STARLINK-4699,1 53716U 22107S   23261.47652232 -.00000181  00000-0  67112-5 0  9992,2 53716  53.2193 348.4820 0001509 100.8616 259.2546 15.08843297 58051,6917.87,95.437,540.779,538.691,0.0
53716.0,STARLINK-4699,PAYLOAD,2023-09-19 14:27:44,15.08857557,0.0001711,53.2198,343.4276,93.8859,266.2329,0.00052066,8.012e-05,0.0,0 STARLINK-4699,1 53716U 22107S   23262.60260110  .00008012  00000-0  52066-3 0  9998,2 53716  53.2198 343.4276 0001711  93.8859 266.2329 15.08857557 57770,6917.827,95.436,540.875,538.508,0.0
53716.0,STARLINK-4699,PAYLOAD,2023-09-20 12:43:10,15.08820181,0.0001501,53.2183,339.2639,76.2573,283.8587,-0.00023844,-4.079e-05,0.0,0 STARLINK-4699,1 53716U 22107S   23263.52997989 -.00004079  00000-0 -23844-3 0  9994,2 53716  53.2183 339.2639 0001501  76.2573 283.8587 15.08820181 57915,6917.941,95.439,540.844,538.768,0.0
53716.0,STARLINK-4699,PAYLOAD,2023-09-21 09:23:10,15.08838904,0.0001121,53.2171,335.3979,99.4882,260.6237,0.0003598,5.443e-05,0.0,0 STARLINK-4699,1 53716U 22107S   23264.39109846  .00005443  00000-0  35980-3 0  9995,2 53716  53.2171 335.3979 0001121  99.4882 260.6237 15.08838904 58046,6917.884,95.438,540.524,538.973,0.0
53716.0,STARLINK-4699,PAYLOAD,2023-09-21 12:33:57,15.08849369,0.0001398,53.2174,334.801,85.0713,275.0439,0.00065972,0.0001023,0.0,0 STARLINK-4699,1 53716U 22107S   23264.52357715  .00010230  00000-0  65972-3 0  9994,2 53716  53.2174 334.8010 0001398  85.0713 275.0439 15.08849369 58512,6917.852,95.437,540.684,538.75,0.0
53716.0,STARLINK-4699,PAYLOAD,2023-09-21 14:09:20,15.08852067,0.0001536,53.2173,334.5048,75.7625,284.3538,0.00070704,0.00010986,0.0,0 STARLINK-4699,1 53716U 22107S   23264.58981735  .00010986  00000-0  70704-3 0  9992,2 53716  53.2173 334.5048 0001536  75.7625 284.3538 15.08852067 58074,6917.844,95.437,540.771,538.646,0.0
53716.0,STARLINK-4699,PAYLOAD,2023-09-21 22:06:16,15.088406,0.0001244,53.2177,333.0131,106.7413,253.3716,0.00052661,8.103e-05,0.0,0 STARLINK-4699,1 53716U 22107S   23264.92102041  .00008103  00000-0  52661-3 0  9995,2 53716  53.2177 333.0131 0001244 106.7413 253.3716 15.08840600 58570,6917.879,95.438,540.604,538.883,0.0
53716.0,STARLINK-4699,PAYLOAD,2023-09-22 04:27:48,15.08845341,0.0001601,53.2171,331.828,81.4621,278.6552,0.00026837,3.986e-05,0.0,0 STARLINK-4699,1 53716U 22107S   23265.18598097  .00003986  00000-0  26837-3 0  9994,2 53716  53.2171 331.8280 0001601  81.4621 278.6552 15.08845341 58162,6917.864,95.437,540.837,538.622,0.0
53716.0,STARLINK-4699,PAYLOAD,2023-09-22 10:49:21,15.08846976,0.0001408,53.2176,330.6374,100.6314,259.4836,0.00034698,5.24e-05,0.0,0 STARLINK-4699,1 53716U 22107S   23265.45093933  .00005240  00000-0  34698-3 0  9992,2 53716  53.2176 330.6374 0001408 100.6314 259.4836 15.08846976 58657,6917.859,95.437,540.698,538.75,0.0
53716.0,STARLINK-4699,PAYLOAD,2023-09-22 21:57:02,15.08851033,0.0001516,53.2173,328.5579,78.3198,281.7964,0.00027013,4.015e-05,0.0,0 STARLINK-4699,1 53716U 22107S   23265.91461730  .00004015  00000-0  27013-3 0  9999,2 53716  53.2173 328.5579 0001516  78.3198 281.7964 15.08851033 58726,6917.847,95.437,540.76,538.663,0.0
53716.0,STARLINK-4699,PAYLOAD,2023-09-23 10:40:07,15.08850458,0.0001585,53.2178,326.1782,79.6024,280.5146,0.00014124,1.961e-05,0.0,0 STARLINK-4699,1 53716U 22107S   23266.44453517  .00001961  00000-0  14124-3 0  9998,2 53716  53.2178 326.1782 0001585  79.6024 280.5146 15.08850458 58357,6917.848,95.437,540.81,538.617,0.0
53716.0,STARLINK-4699,PAYLOAD,2023-09-24 10:30:54,15.08843606,0.0001445,53.2172,321.7172,95.1123,265.0034,6.415e-05,7.33e-06,0.0,0 STARLINK-4699,1 53716U 22107S   23267.43813558  .00000733  00000-0  64150-4 0  9994,2 53716  53.2172 321.7172 0001445  95.1123 265.0034 15.08843606 58501,6917.869,95.437,540.734,538.735,0.0
